{
  "type": "FeatureCollection",
  "features": [
    {
      "type": "Feature",
      "geometry": {
        "type": "Point",
        "coordinates": [
          -100.26256,
          25.600061
        ]
      },
      "properties": {
        "sensor_index": 33027,
        "name": "Lagos del Bosque",
        "pm1_0": 8.8,
        "pm2_5": 12.4,
        "AQ PM 2.5": "Bueno",
        "AQ PM 1": "Bueno",
        "timestamp": "2025-08-03T14:33:22.918803Z"
      }
    },
    {
      "type": "Feature",
      "geometry": {
        "type": "Point",
        "coordinates": [
          -100.35304,
          25.693445
        ]
      },
      "properties": {
        "sensor_index": 47233,
        "name": "Colegio Israelita de Mty",
        "pm1_0": 15.3,
        "pm2_5": 19.2,
        "AQ PM 2.5": "Aceptable",
        "AQ PM 1": "Bueno",
        "timestamp": "2025-08-03T14:33:22.918803Z"
      }
    },
    {
      "type": "Feature",
      "geometry": {
        "type": "Point",
        "coordinates": [
          -100.29761,
          25.677492
        ]
      },
      "properties": {
        "sensor_index": 49949,
        "name": "El Horizonte",
        "pm1_0": 10.2,
        "pm2_5": 14.2,
        "AQ PM 2.5": "Bueno",
        "AQ PM 1": "Bueno",
        "timestamp": "2025-08-03T14:33:22.918803Z"
      }
    },
    {
      "type": "Feature",
      "geometry": {
        "type": "Point",
        "coordinates": [
          -100.31027,
          25.729715
        ]
      },
      "properties": {
        "sensor_index": 84411,
        "name": "Sima UANL",
        "pm1_0": 4.7,
        "pm2_5": 7.5,
        "AQ PM 2.5": "Bueno",
        "AQ PM 1": "Bueno",
        "timestamp": "2025-08-03T14:33:22.918803Z"
      }
    },
    {
      "type": "Feature",
      "geometry": {
        "type": "Point",
        "coordinates": [
          -100.30816,
          25.674164
        ]
      },
      "properties": {
        "sensor_index": 119965,
        "name": "Grupo Reforma El Norte",
        "pm1_0": 4.4,
        "pm2_5": 8.0,
        "AQ PM 2.5": "Bueno",
        "AQ PM 1": "Bueno",
        "timestamp": "2025-08-03T14:33:22.918803Z"
      }
    },
    {
      "type": "Feature",
      "geometry": {
        "type": "Point",
        "coordinates": [
          -100.37162,
          25.662413
        ]
      },
      "properties": {
        "sensor_index": 189447,
        "name": "R\u00cdO AMAZONAS - CALZADA NORTE",
        "pm1_0": 13.5,
        "pm2_5": 19.9,
        "AQ PM 2.5": "Aceptable",
        "AQ PM 1": "Bueno",
        "timestamp": "2025-08-03T14:33:22.918803Z"
      }
    },
    {
      "type": "Feature",
      "geometry": {
        "type": "Point",
        "coordinates": [
          -100.35683,
          25.670425
        ]
      },
      "properties": {
        "sensor_index": 228389,
        "name": "PEGS-Sensor-Canchas",
        "pm1_0": 13.0,
        "pm2_5": 17.6,
        "AQ PM 2.5": "Aceptable",
        "AQ PM 1": "Bueno",
        "timestamp": "2025-08-03T14:33:22.918803Z"
      }
    }
  ]
}